[{"OBJECT_NAME":"STARLINK-1453","OBJECT_ID":"2020-035P","EPOCH":"2026-03-10T00:00:02.999808","MEAN_MOTION":15.52623231,"ECCENTRICITY":0.00068668,"INCLINATION":53.0485,"RA_OF_ASC_NODE":11.8339,"ARG_OF_PERICENTER":53.8237,"MEAN_ANOMALY":148.2661,"EPHEMERIS_TYPE":0,"CLASSIFICATION_TYPE":"U","NORAD_CAT_ID":45670,"ELEMENT_SET_NO":999,"REV_AT_EPOCH":591,"BSTAR":0.0014629927,"MEAN_MOTION_DOT":0.00092259,"MEAN_MOTION_DDOT":0},{"OBJECT_NAME":"PSLV R\/B","OBJECT_ID":"2019-081B","EPOCH":"2026-03-09T21:41:57.489504","MEAN_MOTION":15.51275021,"ECCENTRICITY":0.00222604,"INCLINATION":97.1897,"RA_OF_ASC_NODE":108.7513,"ARG_OF_PERICENTER":106.0396,"MEAN_ANOMALY":254.331,"EPHEMERIS_TYPE":0,"CLASSIFICATION_TYPE":"U","NORAD_CAT_ID":44805,"ELEMENT_SET_NO":999,"REV_AT_EPOCH":34890,"BSTAR":0.00050111254,"MEAN_MOTION_DOT":0.00029651,"MEAN_MOTION_DDOT":0}]
